#dP2018  4 13  0  0  0.00000000      96 __u+U IGS08 FIT  IAC
## 1996 432000.00000000   900.00000000 58221 0.0000000000000
+   86   C01C02C03C04C05C06C07C08C10C11C12C13C14E01E02E03E04
+        E05E07E08E09E11E12E14E18E19E24E26E30G01G02G03G05G06
+        G07G08G09G10G11G12G13G14G15G16G17G18G19G20G21G22G23
+        G24G25G26G27G28G29G30G31G32J01J02J03R01R02R03R04R05
+        R07R08R09R10R11R13R14R15R16R17R18R19R20R21R22R23R24
+        R26  0  0  0  0  0  0  0  0  0  0  0  0  0  0  0  0
++        13 12 12 12 12  8  8  8  8  7  7  8  7  7  7  7  7
++         7  7  7  7  7  7  7  7  7  7  7  7  3  3  3  3  3
++         3  3  3  3  3  3  3  3  3  3  3  3  3  3  3  3  3
++         3  3  3  3  3  3  3  3  3  9 11 13  5  5  5  5  5
++         5  7  5  5  5  5  5  5  5  5  5  5  5  5  5  5  5
++         8  0  0  0  0  0  0  0  0  0  0  0  0  0  0  0  0
%c M  cc GPS ccc cccc cccc cccc cccc ccccc ccccc ccccc ccccc
%c cc cc ccc ccc cccc cccc cccc cccc ccccc ccccc ccccc ccccc
%f  1.2500000  1.025000000  0.00000000000  0.000000000000000
%f  0.0000000  0.000000000  0.00000000000  0.000000000000000
%i    0    0    0    0      0      0      0      0         0
%i    0    0    0    0      0      0      0      0         0
/* INFORMATION & ANALYSIS CENTER (IAC)            FINAL DATA
/* S/V CLOCKS ARE ALIGNED TO GPS & GLONASS TIME RESPECTIVELY
/* USING THE BROADCAST EPHEMERIS                            
/* PCV:IGS14_1992 OL/AL:FES2004  NONE     YN ORB:CoN CLK:CoN
*  2018 04 13 12 45  0.00000000
PC01 -32327.958588  27054.775105     91.872534    606.392693
PC02   4377.592165  41933.496062    723.812214    608.630558
PC03 -14840.788537  39492.853547    734.780582   -451.397461
PC04 -39602.096428  14486.164857    320.766666     22.597875
PC05  21892.679610  36042.689188    795.793905     59.087090
PC06 -24184.999579  26836.590994 -21731.960652    838.996767
PC07 -12767.911311  37924.486474 -12416.464117    190.642168
PC08  -9181.454397  20741.027214  35631.970541    283.580509
PC10  -3540.373154  41822.598486   -395.848773   -154.650216
PC11  11722.847735 -12529.124219 -21965.209432   -466.430590
PC12  26306.084881  -1334.206654  -9287.430655    413.981106
PC13   5591.028567  29228.006319  29978.998635   -287.160578
PC14  16345.468118 -22401.489916   2894.911936    391.782421
PE01  -6498.087035  27335.703888  -9317.006087   -320.712624
PE02   6474.357833 -27344.488020   9282.065814     10.477952
PE03  15083.263983 -20538.023183  15074.435507    -20.546308
PE04   5285.542275  16531.534597 -23970.716481    -13.603372
PE05  26685.458413 -12515.997519  -2694.551284    285.333154
PE07 -22648.602834  -2819.144167  18858.109080     51.002247
PE08  -5357.499408 -16372.874596  24079.088759   6605.178001
PE09  22597.864265   2518.180104 -18946.447463   6821.250027
PE11  26505.545284  12561.642229  -3874.089709   1835.685560
PE12  15367.753079  20549.468279  14741.945213   3928.437697
PE14  26088.592757  -5347.299992  -6126.258202   6599.773573
PE18 -28615.896512  -5649.748526  -6644.496933   6285.339970
PE19 -16693.464936  20269.761326 -13664.201706     21.293880
PE24  14864.630145  11188.621450  23011.567927   6761.383060
PE26 -22079.310350   2342.672850  19584.048013   6054.917581
PE30  -5918.260316 -27283.115734  -9836.993023   5923.891264
PG01 -19181.401456  -8301.654337  16422.938002    -40.437255
PG02  13834.375886  22590.195882   3878.138673    145.868616
PG03 -16706.663030   1573.978867  20558.171600     49.715845
PG05   6357.526674  18024.441610 -18455.942304     -9.976498
PG06   3160.018689  22066.682535  14455.995319    409.018690
PG07 -13018.193542   7791.728570 -21595.860958    208.150672
PG08 -23793.738243  -5266.720700 -10686.500003    -97.687648
PG09 -23332.918690   8689.281571  -9299.134506    510.983533
PG10  10466.507366 -24277.545662   1455.181191    178.561145
PG11 -23941.005118  -7179.839513   8208.563147   -737.451684
PG12  15318.568977   1615.668650  21419.210656    339.828856
PG13  16232.039124  12427.473027 -17066.562948    -95.129892
PG14  -1411.633010 -15316.054735  21949.129011    -96.110895
PG15  24356.294038   4066.045435 -10487.304647   -355.508034
PG16  -4070.081062 -17988.400675 -19095.770859     27.800914
PG17  -8250.469115  14320.125406  21148.348636   -107.322583
PG18 -19571.318609 -15383.730872   9066.502938     -3.690899
PG19  -1197.093096  14629.328621  21853.660502   -443.984371
PG20  17485.539747  -8678.432190 -18130.950154    505.677455
PG21   9961.420509 -11840.859630 -20789.128610   -407.929042
PG22 -14330.877945  -7438.111602  21335.411819   -356.466672
PG23 -26595.306105   -170.062315   3509.221435   -217.989602
PG24  20260.965816  10735.648239  13525.231881    -48.468203
PG25  17511.548475 -12816.870592  14969.532827   -568.939618
PG26   2725.475558 -24076.491571 -10729.575948   -184.119123
PG27 -12812.430760 -12399.049155 -19842.133630    370.225460
PG28 -13740.825256  22733.796139   -379.961409    705.904042
PG29  25251.939132  -4817.197299  -6656.475809    466.922967
PG30  -6448.293398  16674.855016 -19593.123834     85.151840
PG31  -3516.620417 -22570.184153  13225.971866    128.776829
PG32   9155.255686 -14888.880567  20006.705877   -521.003842
PJ01 -32103.249808  26648.207398  11296.475096   -306.734636
PJ02 -18650.712241  24559.455554 -24505.361544      0.791124
PJ03 -30766.842747  26180.644774  17196.806345    -16.194328
PR01 -19434.232210   6522.355659  15174.747660     24.755097
PR02 -18597.544328  17100.711938  -3657.347246    304.626212
PR03  -6114.501297  16298.494684 -18620.668147    129.333878
PR04  10284.449001   5573.247058 -22647.407831    257.001210
PR05  19974.953913  -7870.542356 -13784.715273   -282.441672
PR07   5647.683541 -16117.511241  18970.046169    -35.028539
PR08  -9776.420407  -6094.718540  22812.374240    -26.620635
PR09   6147.692056 -17406.009485  17644.081652     34.930778
PR10  -2509.964667 -25322.365762   2265.906540     22.421598
PR11  -9783.552886 -18344.322765 -14800.270068    -26.338655
PR13  -5484.673753  17710.267287 -17541.936401     -9.393827
PR14   2441.783906  25259.317944  -2535.110696     26.302822
PR15   8456.363789  21066.760833  11738.388828     -8.700749
PR16  11265.648143   1479.540527  22818.075621     90.131446
PR17   4986.921445  12705.064585  21566.762105    124.382649
PR18  19680.100921  12711.405775  10020.250755    191.744749
PR19  23575.344919   6164.067433  -7523.819399    -49.902078
PR20  12951.417024  -5041.164009 -21364.652791   -334.206848
PR21  -5303.788912 -12678.796446 -21481.509284     20.983486
PR22 -20895.714883 -12308.345043  -8120.918239    -34.549791
PR23 -22754.062427  -3707.460716  10925.143318    147.479561
PR24 -12211.949644   5717.269018  21636.857754   -164.951647
PR26  13389.971399  -5014.952284 -21113.873625     12.244570
EOF
